{
  "type": "FeatureCollection",
  "features": [
    {
      "type": "Feature",
      "properties": {
        "norad_id": 28890,
        "name": "BEIJING 1",
        "group": "dmc",
        "lat": 81.47786154553779,
        "lon": 46.35257525176981,
        "alt_km": 665.200480920992,
        "timestamp": "2025-12-20T18:51:31.384416+00:00",
        "meta_object_name": "BEIJING 1",
        "meta_object_id": "2005-043A",
        "meta_epoch": "2025-12-20T15:10:35.992128",
        "meta_mean_motion": 14.63373684,
        "meta_eccentricity": 0.00156959,
        "meta_inclination": 98.2657,
        "meta_ra_of_asc_node": 122.1582,
        "meta_arg_of_pericenter": 118.0004,
        "meta_mean_anomaly": 242.2788,
        "meta_ephemeris_type": 0,
        "meta_classification_type": "U",
        "meta_norad_cat_id": 28890,
        "meta_element_set_no": 999,
        "meta_rev_at_epoch": 7453,
        "meta_bstar": 0.0001065088,
        "meta_mean_motion_dot": 5.02e-06,
        "meta_mean_motion_ddot": 0,
        "tle_line1": "1 28890U 05043A   25354.63236102  .00000502  00000+0  10651-3 0  9993",
        "tle_line2": "2 28890  98.2657 122.1582 0015695 118.0004 242.2788 14.63373684 74534"
      },
      "geometry": {
        "type": "Point",
        "coordinates": [
          46.35257525176981,
          81.47786154553779
        ]
      }
    },
    {
      "type": "Feature",
      "properties": {
        "norad_id": 33320,
        "name": "HUANJING 1A (HJ-1A)",
        "group": "dmc",
        "lat": -25.428948728755767,
        "lon": -13.586225621413378,
        "alt_km": 612.9048348059632,
        "timestamp": "2025-12-20T18:51:31.384441+00:00",
        "meta_object_name": "HUANJING 1A (HJ-1A)",
        "meta_object_id": "2008-041A",
        "meta_epoch": "2025-12-20T14:07:01.750944",
        "meta_mean_motion": 14.83416319,
        "meta_eccentricity": 0.00195958,
        "meta_inclination": 97.6535,
        "meta_ra_of_asc_node": 342.5588,
        "meta_arg_of_pericenter": 9.4964,
        "meta_mean_anomaly": 350.6617,
        "meta_ephemeris_type": 0,
        "meta_classification_type": "U",
        "meta_norad_cat_id": 33320,
        "meta_element_set_no": 999,
        "meta_rev_at_epoch": 93192,
        "meta_bstar": 0.00013595282,
        "meta_mean_motion_dot": 1.068e-05,
        "meta_mean_motion_ddot": 0,
        "tle_line1": "1 33320U 08041A   25354.58821471  .00001068  00000+0  13595-3 0  9999",
        "tle_line2": "2 33320  97.6535 342.5588 0019595   9.4964 350.6617 14.83416319931926"
      },
      "geometry": {
        "type": "Point",
        "coordinates": [
          -13.586225621413378,
          -25.428948728755767
        ]
      }
    },
    {
      "type": "Feature",
      "properties": {
        "norad_id": 33321,
        "name": "HUANJING 1B (HJ-1B)",
        "group": "dmc",
        "lat": 0.5111914354151206,
        "lon": 166.49277528605253,
        "alt_km": 640.032219185101,
        "timestamp": "2025-12-20T18:51:31.384456+00:00",
        "meta_object_name": "HUANJING 1B (HJ-1B)",
        "meta_object_id": "2008-041B",
        "meta_epoch": "2025-12-20T14:48:59.033952",
        "meta_mean_motion": 14.82841667,
        "meta_eccentricity": 0.00380245,
        "meta_inclination": 97.6395,
        "meta_ra_of_asc_node": 346.2632,
        "meta_arg_of_pericenter": 50.889,
        "meta_mean_anomaly": 309.5695,
        "meta_ephemeris_type": 0,
        "meta_classification_type": "U",
        "meta_norad_cat_id": 33321,
        "meta_element_set_no": 999,
        "meta_rev_at_epoch": 93194,
        "meta_bstar": 0.00016386076,
        "meta_mean_motion_dot": 1.291e-05,
        "meta_mean_motion_ddot": 0,
        "tle_line1": "1 33321U 08041B   25354.61734993  .00001291  00000+0  16386-3 0  9995",
        "tle_line2": "2 33321  97.6395 346.2632 0038024  50.8890 309.5695 14.82841667931946"
      },
      "geometry": {
        "type": "Point",
        "coordinates": [
          166.49277528605253,
          0.5111914354151206
        ]
      }
    },
    {
      "type": "Feature",
      "properties": {
        "norad_id": 33446,
        "name": "YAOGAN-4",
        "group": "dmc",
        "lat": 81.50390042681991,
        "lon": -143.91438448601735,
        "alt_km": 621.4434988976964,
        "timestamp": "2025-12-20T18:51:31.384469+00:00",
        "meta_object_name": "YAOGAN-4",
        "meta_object_id": "2008-061A",
        "meta_epoch": "2025-12-20T07:07:49.061568",
        "meta_mean_motion": 14.82702731,
        "meta_eccentricity": 0.00131175,
        "meta_inclination": 97.9192,
        "meta_ra_of_asc_node": 284.3224,
        "meta_arg_of_pericenter": 296.7402,
        "meta_mean_anomaly": 63.2469,
        "meta_ephemeris_type": 0,
        "meta_classification_type": "U",
        "meta_norad_cat_id": 33446,
        "meta_element_set_no": 999,
        "meta_rev_at_epoch": 91915,
        "meta_bstar": 0.000123707,
        "meta_mean_motion_dot": 9.46e-06,
        "meta_mean_motion_ddot": 0,
        "tle_line1": "1 33446U 08061A   25354.29709562  .00000946  00000+0  12371-3 0  9999",
        "tle_line2": "2 33446  97.9192 284.3224 0013117 296.7402  63.2469 14.82702731919157"
      },
      "geometry": {
        "type": "Point",
        "coordinates": [
          -143.91438448601735,
          81.50390042681991
        ]
      }
    },
    {
      "type": "Feature",
      "properties": {
        "norad_id": 35681,
        "name": "DEIMOS-1",
        "group": "dmc",
        "lat": -7.285912297545436,
        "lon": 156.00709964600736,
        "alt_km": 648.6644797073332,
        "timestamp": "2025-12-20T18:51:31.384481+00:00",
        "meta_object_name": "DEIMOS-1",
        "meta_object_id": "2009-041A",
        "meta_epoch": "2025-12-20T15:38:08.391264",
        "meta_mean_motion": 14.74964093,
        "meta_eccentricity": 0.00026015,
        "meta_inclination": 97.7143,
        "meta_ra_of_asc_node": 154.8861,
        "meta_arg_of_pericenter": 66.718,
        "meta_mean_anomaly": 293.4303,
        "meta_ephemeris_type": 0,
        "meta_classification_type": "U",
        "meta_norad_cat_id": 35681,
        "meta_element_set_no": 999,
        "meta_rev_at_epoch": 88056,
        "meta_bstar": 8.6734553e-05,
        "meta_mean_motion_dot": 5.36e-06,
        "meta_mean_motion_ddot": 0,
        "tle_line1": "1 35681U 09041A   25354.65148601  .00000536  00000+0  86735-4 0  9993",
        "tle_line2": "2 35681  97.7143 154.8861 0002601  66.7180 293.4303 14.74964093880564"
      },
      "geometry": {
        "type": "Point",
        "coordinates": [
          156.00709964600736,
          -7.285912297545436
        ]
      }
    },
    {
      "type": "Feature",
      "properties": {
        "norad_id": 35683,
        "name": "UK-DMC 2",
        "group": "dmc",
        "lat": 26.9952691555201,
        "lon": 125.42806707115372,
        "alt_km": 641.6741146071499,
        "timestamp": "2025-12-20T18:51:31.384492+00:00",
        "meta_object_name": "UK-DMC 2",
        "meta_object_id": "2009-041C",
        "meta_epoch": "2025-12-20T15:28:50.568672",
        "meta_mean_motion": 14.75637436,
        "meta_eccentricity": 0.00015378,
        "meta_inclination": 97.8563,
        "meta_ra_of_asc_node": 129.3248,
        "meta_arg_of_pericenter": 94.3731,
        "meta_mean_anomaly": 265.7655,
        "meta_ephemeris_type": 0,
        "meta_classification_type": "U",
        "meta_norad_cat_id": 35683,
        "meta_element_set_no": 999,
        "meta_rev_at_epoch": 88023,
        "meta_bstar": 0.00010204633,
        "meta_mean_motion_dot": 6.48e-06,
        "meta_mean_motion_ddot": 0,
        "tle_line1": "1 35683U 09041C   25354.64502973  .00000648  00000+0  10205-3 0  9992",
        "tle_line2": "2 35683  97.8563 129.3248 0001537  94.3731 265.7655 14.75637436880230"
      },
      "geometry": {
        "type": "Point",
        "coordinates": [
          125.42806707115372,
          26.9952691555201
        ]
      }
    },
    {
      "type": "Feature",
      "properties": {
        "norad_id": 40715,
        "name": "DMC3-FM1",
        "group": "dmc",
        "lat": 0.09208066364280483,
        "lon": -138.32802294324057,
        "alt_km": 614.292587945557,
        "timestamp": "2025-12-20T18:51:31.384502+00:00",
        "meta_object_name": "DMC3-FM1",
        "meta_object_id": "2015-032A",
        "meta_epoch": "2025-12-20T15:37:29.894016",
        "meta_mean_motion": 14.85451555,
        "meta_eccentricity": 0.00042017,
        "meta_inclination": 97.6689,
        "meta_ra_of_asc_node": 221.5546,
        "meta_arg_of_pericenter": 288.4688,
        "meta_mean_anomaly": 71.6071,
        "meta_ephemeris_type": 0,
        "meta_classification_type": "U",
        "meta_norad_cat_id": 40715,
        "meta_element_set_no": 999,
        "meta_rev_at_epoch": 56340,
        "meta_bstar": 5.7959107e-05,
        "meta_mean_motion_dot": 4.48e-06,
        "meta_mean_motion_ddot": 0,
        "tle_line1": "1 40715U 15032A   25354.65104044  .00000448  00000+0  57959-4 0  9995",
        "tle_line2": "2 40715  97.6689 221.5546 0004201 288.4688  71.6071 14.85451555563403"
      },
      "geometry": {
        "type": "Point",
        "coordinates": [
          -138.32802294324057,
          0.09208066364280483
        ]
      }
    },
    {
      "type": "Feature",
      "properties": {
        "norad_id": 40716,
        "name": "DMC3-FM2",
        "group": "dmc",
        "lat": -59.144120574330664,
        "lon": 30.089444899578304,
        "alt_km": 617.4035728268691,
        "timestamp": "2025-12-20T18:51:31.384512+00:00",
        "meta_object_name": "DMC3-FM2",
        "meta_object_id": "2015-032B",
        "meta_epoch": "2025-12-20T14:32:52.604160",
        "meta_mean_motion": 14.85456206,
        "meta_eccentricity": 0.00047076,
        "meta_inclination": 97.6749,
        "meta_ra_of_asc_node": 222.9611,
        "meta_arg_of_pericenter": 295.4696,
        "meta_mean_anomaly": 64.6033,
        "meta_ephemeris_type": 0,
        "meta_classification_type": "U",
        "meta_norad_cat_id": 40716,
        "meta_element_set_no": 999,
        "meta_rev_at_epoch": 56339,
        "meta_bstar": 0.00012975706,
        "meta_mean_motion_dot": 1.067e-05,
        "meta_mean_motion_ddot": 0,
        "tle_line1": "1 40716U 15032B   25354.60616440  .00001067  00000+0  12976-3 0  9996",
        "tle_line2": "2 40716  97.6749 222.9611 0004707 295.4696  64.6033 14.85456206563393"
      },
      "geometry": {
        "type": "Point",
        "coordinates": [
          30.089444899578304,
          -59.144120574330664
        ]
      }
    },
    {
      "type": "Feature",
      "properties": {
        "norad_id": 40717,
        "name": "DMC3-FM3",
        "group": "dmc",
        "lat": 55.111131823184664,
        "lon": 55.931295832260645,
        "alt_km": 609.8230462748488,
        "timestamp": "2025-12-20T18:51:31.384522+00:00",
        "meta_object_name": "DMC3-FM3",
        "meta_object_id": "2015-032C",
        "meta_epoch": "2025-12-20T15:04:06.629664",
        "meta_mean_motion": 14.8544095,
        "meta_eccentricity": 0.00040899,
        "meta_inclination": 97.6805,
        "meta_ra_of_asc_node": 224.6203,
        "meta_arg_of_pericenter": 297.7468,
        "meta_mean_anomaly": 62.3333,
        "meta_ephemeris_type": 0,
        "meta_classification_type": "U",
        "meta_norad_cat_id": 40717,
        "meta_element_set_no": 999,
        "meta_rev_at_epoch": 56340,
        "meta_bstar": 3.1571173e-05,
        "meta_mean_motion_dot": 2.21e-06,
        "meta_mean_motion_ddot": 0,
        "tle_line1": "1 40717U 15032C   25354.62785451  .00000221  00000+0  31571-4 0  9992",
        "tle_line2": "2 40717  97.6805 224.6203 0004089 297.7468  62.3333 14.85440950563407"
      },
      "geometry": {
        "type": "Point",
        "coordinates": [
          55.931295832260645,
          55.111131823184664
        ]
      }
    }
  ]
}